{"spkid": "50252940", "covariance": {"epoch": "2453883.5", "elements": [{"title": "eccentricity", "value": ".3883608361703152", "units": null, "name": "e", "sigma": 6.93998609174778e-07, "label": "e"}, {"name": "q", "sigma": 7.44334997838791e-07, "value": ".6886730258057353", "title": "perihelion distance", "units": "au", "label": "q"}, {"sigma": 2.30423583383176e-05, "name": "tp", "units": "TDB", "title": "time of perihelion passage", "value": "2453785.369614596288", "label": "tp"}, {"name": "om", "sigma": 9.34986840660836e-05, "title": "longitude of the ascending node", "value": "25.58019104873595", "units": "deg", "label": "node"}, {"label": "peri", "units": "deg", "value": "82.87604671528219", "title": "argument of perihelion", "name": "w", "sigma": 3.45257749317756e-05}, {"title": "inclination", "value": "7.746441647298075", "units": "deg", "name": "i", "sigma": 1.48145582690169e-05, "label": "i"}], "data": [["4.81634069536526E-13", "-5.165667092305133E-13", "1.315032154712486E-11", "6.213728909705014E-11", "-1.709200236247051E-11", "-8.176352377188736E-12"], ["-5.165667092305133E-13", "5.540345890076724E-13", "-1.410354864812213E-11", "-6.66429487276484E-11", "1.833234099154617E-11", "8.766818688057059E-12"], ["1.315032154712486E-11", "-1.410354864812213E-11", "5.309502777914326E-10", "1.866829447090637E-9", "-5.14706057299282E-10", "-1.982966792333181E-10"], ["6.213728909705014E-11", "-6.66429487276484E-11", "1.866829447090637E-9", "8.742003922089312E-9", "-2.812715956673142E-9", "-1.12900999537531E-9"], ["-1.709200236247051E-11", "1.833234099154617E-11", "-5.14706057299282E-10", "-2.812715956673142E-9", "1.192029134639624E-9", "3.780299304582424E-10"], ["-8.176352377188736E-12", "8.766818688057059E-12", "-1.982966792333181E-10", "-1.12900999537531E-9", "3.780299304582424E-10", "2.194711367060961E-10"]], "labels": ["e", "q", "tp", "node", "peri", "i"]}, "elements": [{"sigma": "6.8988E-7", "name": "e", "title": "eccentricity", "value": ".3882574769584397", "units": null, "label": "e"}, {"label": "a", "title": "semi-major axis", "value": "1.124347549366117", "units": "au", "name": "a", "sigma": "2.583E-8"}, {"name": "q", "sigma": "7.5996E-7", "value": ".6878112066248238", "title": "perihelion distance", "units": "au", "label": "q"}, {"label": "i", "value": "7.746574266955122", "title": "inclination; angle with respect to x-y ecliptic plane", "units": "deg", "sigma": "1.4694E-5", "name": "i"}, {"units": "deg", "value": "25.36195196371376", "title": "longitude of the ascending node", "name": "om", "sigma": "9.3284E-5", "label": "node"}, {"name": "w", "sigma": "3.5133E-5", "title": "argument of perihelion", "value": "82.97853912792286", "units": "deg", "label": "peri"}, {"label": "M", "name": "ma", "sigma": ".00032449", "units": "deg", "title": "mean anomaly", "value": "5.821061378999298"}, {"label": "tp", "units": "TDB", "value": "2461193.458762857628", "title": "time of perihelion passage", "name": "tp", "sigma": ".00039227"}, {"title": "sidereal orbital period", "value": "435.4610278460189", "units": "d", "sigma": "1.5006E-5", "name": "per", "label": "period"}, {"label": "n", "sigma": "2.8489E-8", "name": "n", "title": "mean motion", "value": ".8267100313906799", "units": "deg/d"}, {"name": "ad", "sigma": "3.5859E-8", "units": "au", "value": "1.56088389210741", "title": "aphelion distance", "label": "Q"}], "epoch": "2461200.5"}